start=new Date('2023-05-02T00:00:00.000Z').valueOf();
sats=[{"EPHEMERIS_TYPE":"0","INCLINATION":"53.2178","SEMIMAJOR_AXIS":"6917.883","FILE":"3898505","MEAN_MOTION_DOT":"0.00000646","OBJECT_ID":"2022-017G","TLE_LINE1":"1 51774U 22017G   23121.91012259  .00000646  00000-0  58683-4 0  9994","PERIOD":"95.438","RA_OF_ASC_NODE":"340.3440","CLASSIFICATION_TYPE":"U","CENTER_NAME":"EARTH","ECCENTRICITY":"0.00013580","GP_ID":"231030495","PERIAPSIS":"538.808","OBJECT_TYPE":"PAYLOAD","MEAN_ANOMALY":"269.3837","NORAD_CAT_ID":"51774","EPOCH":"2023-05-01T21:50:34.591776","APOAPSIS":"540.687","REV_AT_EPOCH":"6664","RCS_SIZE":"LARGE","DECAY_DATE":null,"ARG_OF_PERICENTER":"90.7311","BSTAR":"0.00005868300000","MEAN_MOTION":"15.08839218","REF_FRAME":"TEME","MEAN_MOTION_DDOT":"0.0000000000000","COUNTRY_CODE":"US","OBJECT_NAME":"STARLINK-3629","MEAN_ELEMENT_THEORY":"SGP4","TLE_LINE2":"2 51774  53.2178 340.3440 0001358  90.7311 269.3837 15.08839218 66643","ELEMENT_SET_NO":"999","TIME_SYSTEM":"UTC","LAUNCH_DATE":"2022-02-25","SITE":"AFWTR"},{"INCLINATION":"53.2165","SEMIMAJOR_AXIS":"6917.863","FILE":"3898518","MEAN_MOTION_DOT":"0.00003217","OBJECT_ID":"2022-017H","EPHEMERIS_TYPE":"0","PERIOD":"95.437","RA_OF_ASC_NODE":"340.2879","TLE_LINE1":"1 51775U 22017H   23121.92115941  .00003217  00000-0  22005-3 0  9993","CENTER_NAME":"EARTH","ECCENTRICITY":"0.00010540","GP_ID":"231054056","CLASSIFICATION_TYPE":"U","EPOCH":"2023-05-01T22:06:28.173024","APOAPSIS":"540.457","PERIAPSIS":"538.999","OBJECT_TYPE":"PAYLOAD","MEAN_ANOMALY":"267.3671","NORAD_CAT_ID":"51775","RCS_SIZE":"LARGE","DECAY_DATE":null,"ARG_OF_PERICENTER":"92.7442","BSTAR":"0.00022005000000","REV_AT_EPOCH":"6518","MEAN_MOTION_DDOT":"0.0000000000000","COUNTRY_CODE":"US","MEAN_MOTION":"15.08845767","REF_FRAME":"TEME","OBJECT_NAME":"STARLINK-3620","MEAN_ELEMENT_THEORY":"SGP4","TIME_SYSTEM":"UTC","SITE":"AFWTR","LAUNCH_DATE":"2022-02-25","TLE_LINE2":"2 51775  53.2165 340.2879 0001054  92.7442 267.3671 15.08845767 65183","ELEMENT_SET_NO":"999"},{"TLE_LINE2":"2 51776  53.2193 340.0613 0002217  92.7608 267.3637 15.08849586 66642","ELEMENT_SET_NO":"999","TIME_SYSTEM":"UTC","LAUNCH_DATE":"2022-02-25","SITE":"AFWTR","OBJECT_NAME":"STARLINK-3608","MEAN_ELEMENT_THEORY":"SGP4","MEAN_MOTION":"15.08849586","REF_FRAME":"TEME","MEAN_MOTION_DDOT":"0.0000000000000","COUNTRY_CODE":"US","REV_AT_EPOCH":"6664","RCS_SIZE":"LARGE","DECAY_DATE":null,"BSTAR":"-0.00008912500000","ARG_OF_PERICENTER":"92.7608","PERIAPSIS":"538.182","NORAD_CAT_ID":"51776","OBJECT_TYPE":"PAYLOAD","MEAN_ANOMALY":"267.3637","EPOCH":"2023-05-01T23:20:39.651360","APOAPSIS":"541.250","CLASSIFICATION_TYPE":"U","CENTER_NAME":"EARTH","ECCENTRICITY":"0.00022170","GP_ID":"231030381","TLE_LINE1":"1 51776U 22017J   23121.97268115 -.00001707  00000-0 -89125-4 0  9992","PERIOD":"95.437","RA_OF_ASC_NODE":"340.0613","EPHEMERIS_TYPE":"0","INCLINATION":"53.2193","MEAN_MOTION_DOT":"-0.00001707","FILE":"3898505","SEMIMAJOR_AXIS":"6917.851","OBJECT_ID":"2022-017J"},{"REV_AT_EPOCH":"6665","DECAY_DATE":null,"BSTAR":"0.00003529300000","RCS_SIZE":"LARGE","ARG_OF_PERICENTER":"80.9599","REF_FRAME":"TEME","MEAN_MOTION":"15.08842405","MEAN_MOTION_DDOT":"0.0000000000000","COUNTRY_CODE":"US","MEAN_ELEMENT_THEORY":"SGP4","OBJECT_NAME":"STARLINK-3625","TLE_LINE2":"2 51777  53.2177 340.0109 0001220  80.9599 279.1531 15.08842405 66654","ELEMENT_SET_NO":"999","TIME_SYSTEM":"UTC","LAUNCH_DATE":"2022-02-25","SITE":"AFWTR","EPHEMERIS_TYPE":"0","INCLINATION":"53.2177","FILE":"3898505","MEAN_MOTION_DOT":"0.00000274","SEMIMAJOR_AXIS":"6917.873","OBJECT_ID":"2022-017K","TLE_LINE1":"1 51777U 22017K   23121.97731489  .00000274  00000-0  35293-4 0  9995","PERIOD":"95.437","RA_OF_ASC_NODE":"340.0109","CLASSIFICATION_TYPE":"U","CENTER_NAME":"EARTH","GP_ID":"231030376","ECCENTRICITY":"0.00012200","MEAN_ANOMALY":"279.1531","OBJECT_TYPE":"PAYLOAD","NORAD_CAT_ID":"51777","PERIAPSIS":"538.894","EPOCH":"2023-05-01T23:27:20.006496","APOAPSIS":"540.582"},{"FILE":"3898505","SEMIMAJOR_AXIS":"6917.846","OBJECT_ID":"2022-017L","MEAN_MOTION_DOT":"0.00005976","INCLINATION":"53.2166","EPHEMERIS_TYPE":"0","RA_OF_ASC_NODE":"329.8973","PERIOD":"95.437","TLE_LINE1":"1 51778U 22017L   23121.98094455  .00005976  00000-0  39309-3 0  9997","GP_ID":"231030494","ECCENTRICITY":"0.00011770","CENTER_NAME":"EARTH","CLASSIFICATION_TYPE":"U","APOAPSIS":"540.525","EPOCH":"2023-05-01T23:32:33.609120","NORAD_CAT_ID":"51778","OBJECT_TYPE":"PAYLOAD","MEAN_ANOMALY":"266.2668","PERIAPSIS":"538.897","DECAY_DATE":null,"BSTAR":"0.00039309000000","RCS_SIZE":"LARGE","ARG_OF_PERICENTER":"93.8459","REV_AT_EPOCH":"6679","COUNTRY_CODE":"US","MEAN_MOTION_DDOT":"0.0000000000000","REF_FRAME":"TEME","MEAN_MOTION":"15.08851321","MEAN_ELEMENT_THEORY":"SGP4","OBJECT_NAME":"STARLINK-3615","SITE":"AFWTR","LAUNCH_DATE":"2022-02-25","TIME_SYSTEM":"UTC","ELEMENT_SET_NO":"999","TLE_LINE2":"2 51778  53.2166 329.8973 0001177  93.8459 266.2668 15.08851321 66796"},{"EPHEMERIS_TYPE":"0","INCLINATION":"53.2171","SEMIMAJOR_AXIS":"6917.872","FILE":"3898518","MEAN_MOTION_DOT":"0.00002189","OBJECT_ID":"2022-017M","TLE_LINE1":"1 51779U 22017M   23121.90276092  .00002189  00000-0  15558-3 0  9992","PERIOD":"95.437","RA_OF_ASC_NODE":"340.3701","CLASSIFICATION_TYPE":"U","CENTER_NAME":"EARTH","ECCENTRICITY":"0.00011380","GP_ID":"231053557","PERIAPSIS":"538.950","MEAN_ANOMALY":"266.7118","OBJECT_TYPE":"PAYLOAD","NORAD_CAT_ID":"51779","EPOCH":"2023-05-01T21:39:58.543488","APOAPSIS":"540.524","REV_AT_EPOCH":"6514","DECAY_DATE":null,"ARG_OF_PERICENTER":"93.4004","RCS_SIZE":"LARGE","BSTAR":"0.00015558000000","MEAN_MOTION":"15.08842760","REF_FRAME":"TEME","MEAN_MOTION_DDOT":"0.0000000000000","COUNTRY_CODE":"US","OBJECT_NAME":"STARLINK-3611","MEAN_ELEMENT_THEORY":"SGP4","TLE_LINE2":"2 51779  53.2171 340.3701 0001138  93.4004 266.7118 15.08842760 65149","ELEMENT_SET_NO":"999","TIME_SYSTEM":"UTC","LAUNCH_DATE":"2022-02-25","SITE":"AFWTR"},{"TLE_LINE1":"1 51780U 22017N   23121.89540551  .00000379  00000-0  41854-4 0  9994","RA_OF_ASC_NODE":"340.4361","PERIOD":"95.438","EPHEMERIS_TYPE":"0","OBJECT_ID":"2022-017N","FILE":"3898518","SEMIMAJOR_AXIS":"6917.882","MEAN_MOTION_DOT":"0.00000379","INCLINATION":"53.2169","PERIAPSIS":"539.210","OBJECT_TYPE":"PAYLOAD","MEAN_ANOMALY":"286.9644","NORAD_CAT_ID":"51780","APOAPSIS":"540.284","EPOCH":"2023-05-01T21:29:23.036064","CLASSIFICATION_TYPE":"U","ECCENTRICITY":"0.00007760","GP_ID":"231054808","CENTER_NAME":"EARTH","MEAN_MOTION":"15.08839458","REF_FRAME":"TEME","COUNTRY_CODE":"US","MEAN_MOTION_DDOT":"0.0000000000000","REV_AT_EPOCH":"6499","RCS_SIZE":"LARGE","DECAY_DATE":null,"BSTAR":"0.00004185400000","ARG_OF_PERICENTER":"73.1433","ELEMENT_SET_NO":"999","TLE_LINE2":"2 51780  53.2169 340.4361 0000776  73.1433 286.9644 15.08839458 64999","LAUNCH_DATE":"2022-02-25","SITE":"AFWTR","TIME_SYSTEM":"UTC","OBJECT_NAME":"STARLINK-3617","MEAN_ELEMENT_THEORY":"SGP4"},{"MEAN_MOTION_DOT":"-0.00001638","FILE":"3898518","SEMIMAJOR_AXIS":"6917.865","OBJECT_ID":"2022-017P","INCLINATION":"53.2177","EPHEMERIS_TYPE":"0","RA_OF_ASC_NODE":"340.3910","PERIOD":"95.437","TLE_LINE1":"1 51781U 22017P   23121.89907855 -.00001638  00000-0 -84830-4 0  9991","GP_ID":"231054549","ECCENTRICITY":"0.00019400","CENTER_NAME":"EARTH","CLASSIFICATION_TYPE":"U","APOAPSIS":"541.072","EPOCH":"2023-05-01T21:34:40.386720","OBJECT_TYPE":"PAYLOAD","MEAN_ANOMALY":"252.0958","NORAD_CAT_ID":"51781","PERIAPSIS":"538.388","DECAY_DATE":null,"RCS_SIZE":"LARGE","ARG_OF_PERICENTER":"108.0246","BSTAR":"-0.00008483000000","REV_AT_EPOCH":"6499","COUNTRY_CODE":"US","MEAN_MOTION_DDOT":"0.0000000000000","REF_FRAME":"TEME","MEAN_MOTION":"15.08844918","MEAN_ELEMENT_THEORY":"SGP4","OBJECT_NAME":"STARLINK-3580","LAUNCH_DATE":"2022-02-25","SITE":"AFWTR","TIME_SYSTEM":"UTC","ELEMENT_SET_NO":"999","TLE_LINE2":"2 51781  53.2177 340.3910 0001940 108.0246 252.0958 15.08844918 64991"},{"CLASSIFICATION_TYPE":"U","CENTER_NAME":"EARTH","GP_ID":"231053307","ECCENTRICITY":"0.00011390","OBJECT_TYPE":"PAYLOAD","NORAD_CAT_ID":"51782","MEAN_ANOMALY":"265.4976","PERIAPSIS":"538.955","EPOCH":"2023-05-01T22:01:13.642464","APOAPSIS":"540.531","EPHEMERIS_TYPE":"0","INCLINATION":"53.2160","MEAN_MOTION_DOT":"-0.00000057","FILE":"3898518","SEMIMAJOR_AXIS":"6917.878","OBJECT_ID":"2022-017Q","TLE_LINE1":"1 51782U 22017Q   23121.91751901 -.00000057  00000-0  14490-4 0  9992","PERIOD":"95.438","RA_OF_ASC_NODE":"350.3201","MEAN_ELEMENT_THEORY":"SGP4","OBJECT_NAME":"STARLINK-3616","TLE_LINE2":"2 51782  53.2160 350.3201 0001139  94.6147 265.4976 15.08840820 64769","ELEMENT_SET_NO":"999","TIME_SYSTEM":"UTC","SITE":"AFWTR","LAUNCH_DATE":"2022-02-25","REV_AT_EPOCH":"6476","DECAY_DATE":null,"RCS_SIZE":"LARGE","BSTAR":"0.00001449000000","ARG_OF_PERICENTER":"94.6147","REF_FRAME":"TEME","MEAN_MOTION":"15.08840820","MEAN_MOTION_DDOT":"0.0000000000000","COUNTRY_CODE":"US"},{"EPHEMERIS_TYPE":"0","SEMIMAJOR_AXIS":"6917.878","FILE":"3898518","MEAN_MOTION_DOT":"-0.00000172","OBJECT_ID":"2022-017R","INCLINATION":"53.2167","TLE_LINE1":"1 51783U 22017R   23121.90004320 -.00000172  00000-0  72419-5 0  9992","RA_OF_ASC_NODE":"340.4336","PERIOD":"95.437","CLASSIFICATION_TYPE":"U","GP_ID":"231054057","ECCENTRICITY":"0.00009540","CENTER_NAME":"EARTH","OBJECT_TYPE":"PAYLOAD","MEAN_ANOMALY":"272.9465","NORAD_CAT_ID":"51783","PERIAPSIS":"539.083","APOAPSIS":"540.403","EPOCH":"2023-05-01T21:36:03.732480","REV_AT_EPOCH":"6499","RCS_SIZE":"LARGE","DECAY_DATE":null,"ARG_OF_PERICENTER":"87.1637","BSTAR":"0.00000724190000","REF_FRAME":"TEME","MEAN_MOTION":"15.08840921","COUNTRY_CODE":"US","MEAN_MOTION_DDOT":"0.0000000000000","MEAN_ELEMENT_THEORY":"SGP4","OBJECT_NAME":"STARLINK-3628","ELEMENT_SET_NO":"999","TLE_LINE2":"2 51783  53.2167 340.4336 0000954  87.1637 272.9465 15.08840921 64994","LAUNCH_DATE":"2022-02-25","SITE":"AFWTR","TIME_SYSTEM":"UTC"}];
